{"type": "FeatureCollection", "features": [ {"type": "Feature", "properties": {"norad_id": 36402, "name": "COSMOS 2460 (732)", "group": "gnss", "lat": -59.540921437528404, "lon": -89.85252437818437, "alt_km": 19129.095451062134, "timestamp": "2025-12-09T11:33:55.040981+00:00", "meta": {"OBJECT_NAME": "COSMOS 2460 (732)", "OBJECT_ID": "2010-007C", "EPOCH": "2025-12-09T02:35:27.197952", "MEAN_MOTION": 2.13105905, "ECCENTRICITY": 0.0002812, "INCLINATION": 65.5319, "RA_OF_ASC_NODE": 320.8965, "ARG_OF_PERICENTER": 271.4653, "MEAN_ANOMALY": 90.3471, "EPHEMERIS_TYPE": 0, "CLASSIFICATION_TYPE": "U", "NORAD_CAT_ID": 36402, "ELEMENT_SET_NO": 999, "REV_AT_EPOCH": 12268, "BSTAR": 0, "MEAN_MOTION_DOT": -4.8e-07, "MEAN_MOTION_DDOT": 0}, "tle": {"line1": "1 36402U 10007C   25343.10795368 -.00000048  00000+0  00000+0 0  9990", "line2": "2 36402  65.5319 320.8965 0002812 271.4653  90.3471  2.13105905122689"}}, "geometry": {"type": "Point", "coordinates": [-89.85252437818437, -59.540921437528404]}}, {"type": "Feature", "properties": {"norad_id": 36585, "name": "GPS BIIF-1  (PRN 25)", "group": "gnss", "lat": -7.955122989051326, "lon": -149.54815971052176, "alt_km": 20092.699100379567, "timestamp": "2025-12-09T11:33:55.040993+00:00", "meta": {"OBJECT_NAME": "GPS BIIF-1  (PRN 25)", "OBJECT_ID": "2010-022A", "EPOCH": "2025-12-09T03:49:25.990176", "MEAN_MOTION": 2.0055298, "ECCENTRICITY": 0.0125962, "INCLINATION": 54.3007, "RA_OF_ASC_NODE": 216.2184, "ARG_OF_PERICENTER": 65.0334, "MEAN_ANOMALY": 53.7315, "EPHEMERIS_TYPE": 0, "CLASSIFICATION_TYPE": "U", "NORAD_CAT_ID": 36585, "ELEMENT_SET_NO": 999, "REV_AT_EPOCH": 11378, "BSTAR": 0, "MEAN_MOTION_DOT": 1.4e-07, "MEAN_MOTION_DDOT": 0}, "tle": {"line1": "1 36585U 10022A   25343.15932859  .00000014  00000+0  00000+0 0  9994", "line2": "2 36585  54.3007 216.2184 0125962  65.0334  53.7315  2.00552980113783"}}, "geometry": {"type": "Point", "coordinates": [-149.54815971052176, -7.955122989051326]}}, {"type": "Feature", "properties": {"norad_id": 36828, "name": "BEIDOU-2 IGSO-1 (C06)", "group": "gnss", "lat": -12.082230612394586, "lon": -6.4606438616084825, "alt_km": 35585.08389672949, "timestamp": "2025-12-09T11:33:55.041004+00:00", "meta": {"OBJECT_NAME": "BEIDOU-2 IGSO-1 (C06)", "OBJECT_ID": "2010-036A", "EPOCH": "2025-12-08T22:40:34.354848", "MEAN_MOTION": 1.00277328, "ECCENTRICITY": 0.0051252, "INCLINATION": 54.2862, "RA_OF_ASC_NODE": 164.6817, "ARG_OF_PERICENTER": 215.9151, "MEAN_ANOMALY": 145.3362, "EPHEMERIS_TYPE": 0, "CLASSIFICATION_TYPE": "U", "NORAD_CAT_ID": 36828, "ELEMENT_SET_NO": 999, "REV_AT_EPOCH": 5619, "BSTAR": 0, "MEAN_MOTION_DOT": -6.9e-07, "MEAN_MOTION_DDOT": 0}, "tle": {"line1": "1 36828U 10036A   25342.94484207 -.00000069  00000+0  00000+0 0  9995", "line2": "2 36828  54.2862 164.6817 0051252 215.9151 145.3362  1.00277328 56193"}}, "geometry": {"type": "Point", "coordinates": [-6.4606438616084825, -12.082230612394586]}}, {"type": "Feature", "properties": {"norad_id": 37210, "name": "BEIDOU-2 G4 (C04)", "group": "gnss", "lat": -0.9554699842273431, "lon": 52.106451065357156, "alt_km": 35827.59752879276, "timestamp": "2025-12-09T11:33:55.041017+00:00", "meta": {"OBJECT_NAME": "BEIDOU-2 G4 (C04)", "OBJECT_ID": "2010-057A", "EPOCH": "2025-12-09T04:03:41.248224", "MEAN_MOTION": 1.002712, "ECCENTRICITY": 0.0010979, "INCLINATION": 3.1754, "RA_OF_ASC_NODE": 69.9401, "ARG_OF_PERICENTER": 189.6703, "MEAN_ANOMALY": 39.5481, "EPHEMERIS_TYPE": 0, "CLASSIFICATION_TYPE": "U", "NORAD_CAT_ID": 37210, "ELEMENT_SET_NO": 999, "REV_AT_EPOCH": 5538, "BSTAR": 0, "MEAN_MOTION_DOT": -1.1e-06, "MEAN_MOTION_DDOT": 0}, "tle": {"line1": "1 37210U 10057A   25343.16922741 -.00000110  00000+0  00000+0 0  9996", "line2": "2 37210   3.1754  69.9401 0010979 189.6703  39.5481  1.00271200 55388"}}, "geometry": {"type": "Point", "coordinates": [52.106451065357156, -0.9554699842273431]}}, {"type": "Feature", "properties": {"norad_id": 37256, "name": "BEIDOU-2 IGSO-2 (C07)", "group": "gnss", "lat": 47.6712050404237, "lon": -3.5536111873198166, "alt_km": 35912.72742261034, "timestamp": "2025-12-09T11:33:55.041030+00:00", "meta": {"OBJECT_NAME": "BEIDOU-2 IGSO-2 (C07)", "OBJECT_ID": "2010-068A", "EPOCH": "2025-12-03T17:22:36.027840", "MEAN_MOTION": 1.0028872, "ECCENTRICITY": 0.00492449, "INCLINATION": 47.9042, "RA_OF_ASC_NODE": 274.2614, "ARG_OF_PERICENTER": 216.1411, "MEAN_ANOMALY": 310.24, "EPHEMERIS_TYPE": 0, "CLASSIFICATION_TYPE": "U", "NORAD_CAT_ID": 37256, "ELEMENT_SET_NO": 999, "REV_AT_EPOCH": 5483, "BSTAR": 0, "MEAN_MOTION_DOT": -2.25e-06, "MEAN_MOTION_DDOT": 0}, "tle": {"line1": "1 37256U 10068A   25337.72402810 -.00000225  00000+0  00000+0 0  9990", "line2": "2 37256  47.9042 274.2614 0049244 216.1411 310.2400  1.00288720 54834"}}, "geometry": {"type": "Point", "coordinates": [-3.5536111873198166, 47.6712050404237]}}, {"type": "Feature", "properties": {"norad_id": 37384, "name": "BEIDOU-2 IGSO-3 (C08)", "group": "gnss", "lat": -36.39257626433944, "lon": 19.066082643851324, "alt_km": 35888.03053825643, "timestamp": "2025-12-09T11:33:55.041043+00:00", "meta": {"OBJECT_NAME": "BEIDOU-2 IGSO-3 (C08)", "OBJECT_ID": "2011-013A", "EPOCH": "2025-12-07T14:00:04.361184", "MEAN_MOTION": 1.00271435, "ECCENTRICITY": 0.0035334, "INCLINATION": 62.1366, "RA_OF_ASC_NODE": 41.9657, "ARG_OF_PERICENTER": 187.0632, "MEAN_ANOMALY": 165.2408, "EPHEMERIS_TYPE": 0, "CLASSIFICATION_TYPE": "U", "NORAD_CAT_ID": 37384, "ELEMENT_SET_NO": 999, "REV_AT_EPOCH": 5373, "BSTAR": 0, "MEAN_MOTION_DOT": -1.91e-06, "MEAN_MOTION_DDOT": 0}, "tle": {"line1": "1 37384U 11013A   25341.58338381 -.00000191  00000+0  00000+0 0  9995", "line2": "2 37384  62.1366  41.9657 0035334 187.0632 165.2408  1.00271435 53735"}}, "geometry": {"type": "Point", "coordinates": [19.066082643851324, -36.39257626433944]}}, {"type": "Feature", "properties": {"norad_id": 37605, "name": "GSAT-8 (GAGAN/PRN 127)", "group": "gnss", "lat": -1.1243346956032334, "lon": -52.89047663108378, "alt_km": 35751.18149815719, "timestamp": "2025-12-09T11:33:55.041055+00:00", "meta": {"OBJECT_NAME": "GSAT-8 (GAGAN/PRN 127)", "OBJECT_ID": "2011-022A", "EPOCH": "2025-12-09T03:33:44.116128", "MEAN_MOTION": 1.00275427, "ECCENTRICITY": 0.0009985, "INCLINATION": 1.6331, "RA_OF_ASC_NODE": 84.2675, "ARG_OF_PERICENTER": 186.4482, "MEAN_ANOMALY": 275.9593, "EPHEMERIS_TYPE": 0, "CLASSIFICATION_TYPE": "U", "NORAD_CAT_ID": 37605, "ELEMENT_SET_NO": 999, "REV_AT_EPOCH": 5131, "BSTAR": 0, "MEAN_MOTION_DOT": 8.6e-07, "MEAN_MOTION_DDOT": 0}, "tle": {"line1": "1 37605U 11022A   25343.14842727  .00000086  00000+0  00000+0 0  9991", "line2": "2 37605   1.6331  84.2675 0009985 186.4482 275.9593  1.00275427 51311"}}, "geometry": {"type": "Point", "coordinates": [-52.89047663108378, -1.1243346956032334]}}, {"type": "Feature", "properties": {"norad_id": 37763, "name": "BEIDOU-2 IGSO-4 (C09)", "group": "gnss", "lat": 2.001444916195265, "lon": -14.05565671692502, "alt_km": 35397.06852743201, "timestamp": "2025-12-09T11:33:55.041068+00:00", "meta": {"OBJECT_NAME": "BEIDOU-2 IGSO-4 (C09)", "OBJECT_ID": "2011-038A", "EPOCH": "2025-12-01T12:32:09.960864", "MEAN_MOTION": 1.00284084, "ECCENTRICITY": 0.01488084, "INCLINATION": 54.5806, "RA_OF_ASC_NODE": 167.4476, "ARG_OF_PERICENTER": 230.2017, "MEAN_ANOMALY": 315.0405, "EPHEMERIS_TYPE": 0, "CLASSIFICATION_TYPE": "U", "NORAD_CAT_ID": 37763, "ELEMENT_SET_NO": 999, "REV_AT_EPOCH": 5266, "BSTAR": 0, "MEAN_MOTION_DOT": 1.01e-06, "MEAN_MOTION_DDOT": 0}, "tle": {"line1": "1 37763U 11038A   25335.52233751  .00000101  00000+0  00000+0 0  9995", "line2": "2 37763  54.5806 167.4476 0148808 230.2017 315.0405  1.00284084 52669"}}, "geometry": {"type": "Point", "coordinates": [-14.05565671692502, 2.001444916195265]}}, {"type": "Feature", "properties": {"norad_id": 37846, "name": "GSAT0101 (GALILEO-PFM)", "group": "gnss", "lat": 47.62425946795807, "lon": 32.21151452647419, "alt_km": 23219.327096068126, "timestamp": "2025-12-09T11:33:55.041082+00:00", "meta": {"OBJECT_NAME": "GSAT0101 (GALILEO-PFM)", "OBJECT_ID": "2011-060A", "EPOCH": "2025-12-06T10:45:46.943136", "MEAN_MOTION": 1.70475516, "ECCENTRICITY": 0.00028809, "INCLINATION": 57.0541, "RA_OF_ASC_NODE": 346.9907, "ARG_OF_PERICENTER": 311.6243, "MEAN_ANOMALY": 48.3737, "EPHEMERIS_TYPE": 0, "CLASSIFICATION_TYPE": "U", "NORAD_CAT_ID": 37846, "ELEMENT_SET_NO": 999, "REV_AT_EPOCH": 8783, "BSTAR": 0, "MEAN_MOTION_DOT": -8.1e-07, "MEAN_MOTION_DDOT": 0}, "tle": {"line1": "1 37846U 11060A   25340.44845999 -.00000081  00000+0  00000+0 0  9990", "line2": "2 37846  57.0541 346.9907 0002880 311.6243  48.3737  1.70475516 87832"}}, "geometry": {"type": "Point", "coordinates": [32.21151452647419, 47.62425946795807]}}, {"type": "Feature", "properties": {"norad_id": 37847, "name": "GSAT0102 (GALILEO-FM2)", "group": "gnss", "lat": 53.28231711843862, "lon": 106.50473151316434, "alt_km": 23229.39623213701, "timestamp": "2025-12-09T11:33:55.041094+00:00", "meta": {"OBJECT_NAME": "GSAT0102 (GALILEO-FM2)", "OBJECT_ID": "2011-060B", "EPOCH": "2025-12-09T00:17:40.052832", "MEAN_MOTION": 1.70475785, "ECCENTRICITY": 0.0004909, "INCLINATION": 57.0543, "RA_OF_ASC_NODE": 346.9214, "ARG_OF_PERICENTER": 308.1942, "MEAN_ANOMALY": 230.7315, "EPHEMERIS_TYPE": 0, "CLASSIFICATION_TYPE": "U", "NORAD_CAT_ID": 37847, "ELEMENT_SET_NO": 999, "REV_AT_EPOCH": 8788, "BSTAR": 0, "MEAN_MOTION_DOT": -8.7e-07, "MEAN_MOTION_DDOT": 0}, "tle": {"line1": "1 37847U 11060B   25343.01226913 -.00000087  00000+0  00000+0 0  9992", "line2": "2 37847  57.0543 346.9214 0004909 308.1942 230.7315  1.70475785 87889"}}, "geometry": {"type": "Point", "coordinates": [106.50473151316434, 53.28231711843862]}}]}